{
 "generated_at": "2026-06-25T08:23:36Z",
 "sources": [
  {
   "name": "CelesTrak",
   "url": "https://celestrak.org/NORAD/elements/",
   "license": "frei verfügbar; Attribution. Ursprünglich USSPACECOM/Space-Track."
  },
  {
   "name": "GCAT (J. McDowell, planet4589.org)",
   "url": "https://planet4589.org/space/gcat/",
   "license": "CC-BY 4.0"
  }
 ],
 "satellites": [
  {
   "norad": 39419,
   "name": "DUBAISAT-2",
   "intl": "2013-066D",
   "group": "resource",
   "gcat": {
    "class": "C",
    "category": "IMG",
    "owner": "EIAST",
    "state": "UAE"
   },
   "omm": {
    "OBJECT_NAME": "DUBAISAT-2",
    "OBJECT_ID": "2013-066D",
    "EPOCH": "2026-06-24T07:01:48.554112",
    "MEAN_MOTION": 15.10229,
    "ECCENTRICITY": 0.00117137,
    "INCLINATION": 97.4572,
    "RA_OF_ASC_NODE": 165.2507,
    "ARG_OF_PERICENTER": 19.1199,
    "MEAN_ANOMALY": 341.0468,
    "EPHEMERIS_TYPE": 0,
    "CLASSIFICATION_TYPE": "U",
    "NORAD_CAT_ID": 39419,
    "ELEMENT_SET_NO": 999,
    "REV_AT_EPOCH": 68746,
    "BSTAR": 0.00019776686,
    "MEAN_MOTION_DOT": 0.00003175,
    "MEAN_MOTION_DDOT": 0
   }
  },
  {
   "norad": 41105,
   "name": "ELEKTRO-L 2",
   "intl": "2015-074A",
   "group": "weather",
   "gcat": {
    "class": "C",
    "category": "MET",
    "owner": "RGMS/NPOLO",
    "state": "RU"
   },
   "omm": {
    "OBJECT_NAME": "ELEKTRO-L 2",
    "OBJECT_ID": "2015-074A",
    "EPOCH": "2026-06-23T22:53:22.057728",
    "MEAN_MOTION": 1.00271133,
    "ECCENTRICITY": 0.00007659,
    "INCLINATION": 6.711,
    "RA_OF_ASC_NODE": 70.4435,
    "ARG_OF_PERICENTER": 277.7123,
    "MEAN_ANOMALY": 252.7626,
    "EPHEMERIS_TYPE": 0,
    "CLASSIFICATION_TYPE": "U",
    "NORAD_CAT_ID": 41105,
    "ELEMENT_SET_NO": 999,
    "REV_AT_EPOCH": 3857,
    "BSTAR": 0,
    "MEAN_MOTION_DOT": -0.00000116,
    "MEAN_MOTION_DDOT": 0
   }
  },
  {
   "norad": 51656,
   "name": "EOS-4",
   "intl": "2022-013A",
   "group": "sar",
   "gcat": {
    "class": "C",
    "category": "IMG-R",
    "owner": "ISRO",
    "state": "IN"
   },
   "omm": {
    "OBJECT_NAME": "EOS-4",
    "OBJECT_ID": "2022-013A",
    "EPOCH": "2026-06-24T07:25:10.943616",
    "MEAN_MOTION": 15.12725773,
    "ECCENTRICITY": 0.00019019,
    "INCLINATION": 97.5111,
    "RA_OF_ASC_NODE": 181.8502,
    "ARG_OF_PERICENTER": 89.2792,
    "MEAN_ANOMALY": 270.8657,
    "EPHEMERIS_TYPE": 0,
    "CLASSIFICATION_TYPE": "U",
    "NORAD_CAT_ID": 51656,
    "ELEMENT_SET_NO": 999,
    "REV_AT_EPOCH": 24056,
    "BSTAR": 0.000068400179,
    "MEAN_MOTION_DOT": 0.00001134,
    "MEAN_MOTION_DDOT": 0
   }
  },
  {
   "norad": 36411,
   "name": "EWS-G2 (GOES 15)",
   "intl": "2010-008A",
   "group": "weather",
   "gcat": {
    "class": "C",
    "category": "MET",
    "owner": "NOAA",
    "state": "US"
   },
   "omm": {
    "OBJECT_NAME": "EWS-G2 (GOES 15)",
    "OBJECT_ID": "2010-008A",
    "EPOCH": "2026-06-24T02:40:53.142816",
    "MEAN_MOTION": 1.0026767,
    "ECCENTRICITY": 0.0005175,
    "INCLINATION": 1.2971,
    "RA_OF_ASC_NODE": 82.758,
    "ARG_OF_PERICENTER": 42.324,
    "MEAN_ANOMALY": 251.0022,
    "EPHEMERIS_TYPE": 0,
    "CLASSIFICATION_TYPE": "U",
    "NORAD_CAT_ID": 36411,
    "ELEMENT_SET_NO": 999,
    "REV_AT_EPOCH": 5970,
    "BSTAR": 0,
    "MEAN_MOTION_DOT": 2.7e-7,
    "MEAN_MOTION_DDOT": 0
   }
  },
  {
   "norad": 38709,
   "name": "EXACTVIEW-1 (ADS-1B)",
   "intl": "2012-039C",
   "group": "resource",
   "gcat": {
    "class": "B",
    "category": "COM",
    "owner": "EXEA",
    "state": "CA"
   },
   "omm": {
    "OBJECT_NAME": "EXACTVIEW-1 (ADS-1B)",
    "OBJECT_ID": "2012-039C",
    "EPOCH": "2026-06-24T04:36:42.526368",
    "MEAN_MOTION": 14.24986367,
    "ECCENTRICITY": 0.0011499,
    "INCLINATION": 98.9784,
    "RA_OF_ASC_NODE": 292.7408,
    "ARG_OF_PERICENTER": 147.1161,
    "MEAN_ANOMALY": 213.0735,
    "EPHEMERIS_TYPE": 0,
    "CLASSIFICATION_TYPE": "U",
    "NORAD_CAT_ID": 38709,
    "ELEMENT_SET_NO": 999,
    "REV_AT_EPOCH": 72370,
    "BSTAR": 0.000057389546,
    "MEAN_MOTION_DOT": 8.8e-7,
    "MEAN_MOTION_DDOT": 0
   }
  },
  {
   "norad": 40367,
   "name": "FENGYUN 2G",
   "intl": "2014-090A",
   "group": "weather",
   "gcat": {
    "class": "C",
    "category": "MET",
    "owner": "NSMC",
    "state": "CN"
   },
   "omm": {
    "OBJECT_NAME": "FENGYUN 2G",
    "OBJECT_ID": "2014-090A",
    "EPOCH": "2026-06-23T21:41:59.362656",
    "MEAN_MOTION": 1.00269968,
    "ECCENTRICITY": 0.00035936,
    "INCLINATION": 5.6568,
    "RA_OF_ASC_NODE": 72.7393,
    "ARG_OF_PERICENTER": 152.933,
    "MEAN_ANOMALY": 111.5572,
    "EPHEMERIS_TYPE": 0,
    "CLASSIFICATION_TYPE": "U",
    "NORAD_CAT_ID": 40367,
    "ELEMENT_SET_NO": 999,
    "REV_AT_EPOCH": 4206,
    "BSTAR": 0,
    "MEAN_MOTION_DOT": -0.00000299,
    "MEAN_MOTION_DDOT": 0
   }
  },
  {
   "norad": 43491,
   "name": "FENGYUN 2H",
   "intl": "2018-050A",
   "group": "weather",
   "gcat": {
    "class": "C",
    "category": "MET",
    "owner": "NSMC",
    "state": "CN"
   },
   "omm": {
    "OBJECT_NAME": "FENGYUN 2H",
    "OBJECT_ID": "2018-050A",
    "EPOCH": "2026-06-24T02:45:22.711680",
    "MEAN_MOTION": 1.00269578,
    "ECCENTRICITY": 0.00016752,
    "INCLINATION": 3.05,
    "RA_OF_ASC_NODE": 79.0011,
    "ARG_OF_PERICENTER": 128.9794,
    "MEAN_ANOMALY": 184.9906,
    "EPHEMERIS_TYPE": 0,
    "CLASSIFICATION_TYPE": "U",
    "NORAD_CAT_ID": 43491,
    "ELEMENT_SET_NO": 999,
    "REV_AT_EPOCH": 2950,
    "BSTAR": 0,
    "MEAN_MOTION_DOT": -0.00000124,
    "MEAN_MOTION_DDOT": 0
   }
  },
  {
   "norad": 32958,
   "name": "FENGYUN 3A",
   "intl": "2008-026A",
   "group": "weather",
   "gcat": {
    "class": null,
    "category": null,
    "owner": null,
    "state": null
   },
   "omm": {
    "OBJECT_NAME": "FENGYUN 3A",
    "OBJECT_ID": "2008-026A",
    "EPOCH": "2026-06-24T02:17:47.096736",
    "MEAN_MOTION": 14.1957231,
    "ECCENTRICITY": 0.00098048,
    "INCLINATION": 98.6884,
    "RA_OF_ASC_NODE": 115.7997,
    "ARG_OF_PERICENTER": 105.7515,
    "MEAN_ANOMALY": 254.4743,
    "EPHEMERIS_TYPE": 0,
    "CLASSIFICATION_TYPE": "U",
    "NORAD_CAT_ID": 32958,
    "ELEMENT_SET_NO": 999,
    "REV_AT_EPOCH": 93638,
    "BSTAR": 0.000039856081,
    "MEAN_MOTION_DOT": 4.1e-7,
    "MEAN_MOTION_DDOT": 0
   }
  },
  {
   "norad": 37214,
   "name": "FENGYUN 3B",
   "intl": "2010-059A",
   "group": "weather",
   "gcat": {
    "class": null,
    "category": null,
    "owner": null,
    "state": null
   },
   "omm": {
    "OBJECT_NAME": "FENGYUN 3B",
    "OBJECT_ID": "2010-059A",
    "EPOCH": "2026-06-24T07:27:55.071648",
    "MEAN_MOTION": 14.14841469,
    "ECCENTRICITY": 0.00223222,
    "INCLINATION": 98.9619,
    "RA_OF_ASC_NODE": 221.356,
    "ARG_OF_PERICENTER": 163.7705,
    "MEAN_ANOMALY": 288.5796,
    "EPHEMERIS_TYPE": 0,
    "CLASSIFICATION_TYPE": "U",
    "NORAD_CAT_ID": 37214,
    "ELEMENT_SET_NO": 999,
    "REV_AT_EPOCH": 80843,
    "BSTAR": -0.00017118991,
    "MEAN_MOTION_DOT": -0.00000376,
    "MEAN_MOTION_DDOT": 0
   }
  },
  {
   "norad": 39260,
   "name": "FENGYUN 3C",
   "intl": "2013-052A",
   "group": "weather",
   "gcat": {
    "class": "C",
    "category": "MET",
    "owner": "NSMC",
    "state": "CN"
   },
   "omm": {
    "OBJECT_NAME": "FENGYUN 3C",
    "OBJECT_ID": "2013-052A",
    "EPOCH": "2026-06-24T06:03:36.576288",
    "MEAN_MOTION": 14.15756362,
    "ECCENTRICITY": 0.00148582,
    "INCLINATION": 98.4982,
    "RA_OF_ASC_NODE": 148.803,
    "ARG_OF_PERICENTER": 7.908,
    "MEAN_ANOMALY": 352.2326,
    "EPHEMERIS_TYPE": 0,
    "CLASSIFICATION_TYPE": "U",
    "NORAD_CAT_ID": 39260,
    "ELEMENT_SET_NO": 999,
    "REV_AT_EPOCH": 65956,
    "BSTAR": 0.000054028082,
    "MEAN_MOTION_DOT": 6.5e-7,
    "MEAN_MOTION_DDOT": 0
   }
  }
 ]
}
